ATLAS CENTAUR 2         
1 00694U 63047A   26084.45166586  .00002062  00000+0  23774-3 0  9995
2 00694  30.3556 107.5495 0547412 219.2073 136.7629 14.12126768133853
SL-3 R/B                
1 00877U 64053B   26084.56856144  .00000171  00000+0  57279-4 0  9991
2 00877  65.0757 284.6826 0080300 287.2194  72.0129 14.61378659269114
SL-8 R/B                
1 02802U 67045B   26084.07621401  .00000290  00000+0  88046-4 0  9995
2 02802  74.0118 319.3559 0064758 322.1888  37.4728 14.45634702 91245
SL-8 R/B                
1 03230U 68040B   26084.54820550  .00003424  00000+0  25358-3 0  9993
2 03230  74.0293 281.2853 0023376  98.8455 261.5382 15.03358039 92391
OAO 2                   
1 03597U 68110A   26084.58117467  .00000225  00000+0  65709-4 0  9998
2 03597  34.9926 176.4945 0005989 320.7193  39.3062 14.47316404 21405
ISIS 1                  
1 03669U 69009A   26084.11912916  .00000119  00000+0  69775-4 0  9996
2 03669  88.4516 153.6252 1707870  58.0378 317.5403 11.30418185350275
SERT 2                  
1 04327U 70009A   26084.62691675  .00000013  00000+0  74560-4 0  9993
2 04327  99.2779  26.8501 0005557 118.5992  54.5203 13.58731274782052
SL-3 R/B                
1 05118U 71028B   26084.60938414  .00047022  00000+0  52358-3 0  9998
2 05118  81.2370  32.3481 0014059 218.4198 141.6056 15.62521053991159
ASTEX 1                 
1 05560U 71089A   26084.47918769  .00000418  00000+0  10642-3 0  9990
2 05560  92.7098 156.8634 0016817  38.5729 321.6675 14.50785477864593
SL-8 R/B                
1 05730U 71119B   26084.58872655  .00006696  00000+0  35096-3 0  9992
2 05730  73.8860 145.9952 0546779 109.2670 256.8449 14.38174900657774
OAO 3 (COPERNICUS)      
1 06153U 72065A   26084.46505031  .00000339  00000+0  73920-4 0  9998
2 06153  35.0049 207.4346 0007295 288.5585 133.1911 14.60010080848502
ATLAS CENTAUR R/B       
1 06155U 72065B   26084.63894805  .00001312  00000+0  18163-3 0  9998
2 06155  35.0007 212.2804 0033114 145.2583 215.0288 14.77730131843626
SL-8 R/B                
1 08459U 75112B   26084.43210586  .00000242  00000+0  88232-4 0  9995
2 08459  74.0633 349.9558 0014500  76.6419 283.6351 14.38212739634132
SL-3 R/B                
1 10114U 77057B   26084.57952591  .00013423  00000+0  27739-3 0  9999
2 10114  97.5798 257.2069 0006590 217.5204 142.5586 15.45937111670782
SEASAT 1                
1 10967U 78064A   26084.47482770  .00000259  00000+0  11092-3 0  9998
2 10967 108.0081 158.6212 0002568 278.2912  81.7942 14.46172802508795
SL-14 R/B               
1 11267U 79011B   26084.40887328  .00000636  00000+0  60236-4 0  9990
2 11267  82.5207  81.6498 0016272  10.9169 349.2400 14.91927200531122
