[{"OBJECT_NAME":"ATLAS CENTAUR 2","OBJECT_ID":"1963-047A","EPOCH":"2026-03-25T10:50:23.930304","MEAN_MOTION":14.12126768,"ECCENTRICITY":0.05474123,"INCLINATION":30.3556,"RA_OF_ASC_NODE":107.5495,"ARG_OF_PERICENTER":219.2073,"MEAN_ANOMALY":136.7629,"EPHEMERIS_TYPE":0,"CLASSIFICATION_TYPE":"U","NORAD_CAT_ID":694,"ELEMENT_SET_NO":999,"REV_AT_EPOCH":13385,"BSTAR":0.00023774308,"MEAN_MOTION_DOT":2.062e-5,"MEAN_MOTION_DDOT":0},{"OBJECT_NAME":"SL-3 R/B","OBJECT_ID":"1964-053B","EPOCH":"2026-03-25T13:38:43.708416","MEAN_MOTION":14.61378659,"ECCENTRICITY":0.00803006,"INCLINATION":65.0757,"RA_OF_ASC_NODE":284.6826,"ARG_OF_PERICENTER":287.2194,"MEAN_ANOMALY":72.0129,"EPHEMERIS_TYPE":0,"CLASSIFICATION_TYPE":"U","NORAD_CAT_ID":877,"ELEMENT_SET_NO":999,"REV_AT_EPOCH":26911,"BSTAR":5.7279003e-5,"MEAN_MOTION_DOT":1.71e-6,"MEAN_MOTION_DDOT":0},{"OBJECT_NAME":"SL-8 R/B","OBJECT_ID":"1967-045B","EPOCH":"2026-03-25T01:49:44.890464","MEAN_MOTION":14.45634702,"ECCENTRICITY":0.00647586,"INCLINATION":74.0118,"RA_OF_ASC_NODE":319.3559,"ARG_OF_PERICENTER":322.1888,"MEAN_ANOMALY":37.4728,"EPHEMERIS_TYPE":0,"CLASSIFICATION_TYPE":"U","NORAD_CAT_ID":2802,"ELEMENT_SET_NO":999,"REV_AT_EPOCH":9124,"BSTAR":8.8046015e-5,"MEAN_MOTION_DOT":2.9e-6,"MEAN_MOTION_DDOT":0},{"OBJECT_NAME":"SL-8 R/B","OBJECT_ID":"1968-040B","EPOCH":"2026-03-25T13:09:24.955200","MEAN_MOTION":15.03358039,"ECCENTRICITY":0.00233764,"INCLINATION":74.0293,"RA_OF_ASC_NODE":281.2853,"ARG_OF_PERICENTER":98.8455,"MEAN_ANOMALY":261.5382,"EPHEMERIS_TYPE":0,"CLASSIFICATION_TYPE":"U","NORAD_CAT_ID":3230,"ELEMENT_SET_NO":999,"REV_AT_EPOCH":9239,"BSTAR":0.00025357787,"MEAN_MOTION_DOT":3.424e-5,"MEAN_MOTION_DDOT":0},{"OBJECT_NAME":"OAO 2","OBJECT_ID":"1968-110A","EPOCH":"2026-03-25T13:56:53.491488","MEAN_MOTION":14.47316404,"ECCENTRICITY":0.00059895,"INCLINATION":34.9926,"RA_OF_ASC_NODE":176.4945,"ARG_OF_PERICENTER":320.7193,"MEAN_ANOMALY":39.3062,"EPHEMERIS_TYPE":0,"CLASSIFICATION_TYPE":"U","NORAD_CAT_ID":3597,"ELEMENT_SET_NO":999,"REV_AT_EPOCH":2140,"BSTAR":6.5708548e-5,"MEAN_MOTION_DOT":2.25e-6,"MEAN_MOTION_DDOT":0},{"OBJECT_NAME":"ISIS 1","OBJECT_ID":"1969-009A","EPOCH":"2026-03-25T02:51:32.759424","MEAN_MOTION":11.30418185,"ECCENTRICITY":0.17078707,"INCLINATION":88.4516,"RA_OF_ASC_NODE":153.6252,"ARG_OF_PERICENTER":58.0378,"MEAN_ANOMALY":317.5403,"EPHEMERIS_TYPE":0,"CLASSIFICATION_TYPE":"U","NORAD_CAT_ID":3669,"ELEMENT_SET_NO":999,"REV_AT_EPOCH":35027,"BSTAR":6.9774651e-5,"MEAN_MOTION_DOT":1.19e-6,"MEAN_MOTION_DDOT":0},{"OBJECT_NAME":"SERT 2","OBJECT_ID":"1970-009A","EPOCH":"2026-03-25T15:02:45.607200","MEAN_MOTION":13.58731274,"ECCENTRICITY":0.0005557,"INCLINATION":99.2779,"RA_OF_ASC_NODE":26.8501,"ARG_OF_PERICENTER":118.5992,"MEAN_ANOMALY":54.5203,"EPHEMERIS_TYPE":0,"CLASSIFICATION_TYPE":"U","NORAD_CAT_ID":4327,"ELEMENT_SET_NO":999,"REV_AT_EPOCH":78205,"BSTAR":7.4560497e-5,"MEAN_MOTION_DOT":1.3e-7,"MEAN_MOTION_DDOT":0},{"OBJECT_NAME":"SL-3 R/B","OBJECT_ID":"1971-028B","EPOCH":"2026-03-25T14:37:30.789696","MEAN_MOTION":15.62521053,"ECCENTRICITY":0.00140592,"INCLINATION":81.237,"RA_OF_ASC_NODE":32.3481,"ARG_OF_PERICENTER":218.4198,"MEAN_ANOMALY":141.6056,"EPHEMERIS_TYPE":0,"CLASSIFICATION_TYPE":"U","NORAD_CAT_ID":5118,"ELEMENT_SET_NO":999,"REV_AT_EPOCH":99115,"BSTAR":0.00052358358,"MEAN_MOTION_DOT":0.00047022,"MEAN_MOTION_DDOT":0},{"OBJECT_NAME":"ASTEX 1","OBJECT_ID":"1971-089A","EPOCH":"2026-03-25T11:30:01.816416","MEAN_MOTION":14.50785477,"ECCENTRICITY":0.00168177,"INCLINATION":92.7098,"RA_OF_ASC_NODE":156.8634,"ARG_OF_PERICENTER":38.5729,"MEAN_ANOMALY":321.6675,"EPHEMERIS_TYPE":0,"CLASSIFICATION_TYPE":"U","NORAD_CAT_ID":5560,"ELEMENT_SET_NO":999,"REV_AT_EPOCH":86459,"BSTAR":0.00010641661,"MEAN_MOTION_DOT":4.18e-6,"MEAN_MOTION_DDOT":0},{"OBJECT_NAME":"SL-8 R/B","OBJECT_ID":"1971-119B","EPOCH":"2026-03-25T14:07:45.973920","MEAN_MOTION":14.381749,"ECCENTRICITY":0.05467791,"INCLINATION":73.886,"RA_OF_ASC_NODE":145.9952,"ARG_OF_PERICENTER":109.267,"MEAN_ANOMALY":256.8449,"EPHEMERIS_TYPE":0,"CLASSIFICATION_TYPE":"U","NORAD_CAT_ID":5730,"ELEMENT_SET_NO":999,"REV_AT_EPOCH":65777,"BSTAR":0.0003509622,"MEAN_MOTION_DOT":6.696e-5,"MEAN_MOTION_DDOT":0},{"OBJECT_NAME":"OAO 3 (COPERNICUS)","OBJECT_ID":"1972-065A","EPOCH":"2026-03-25T11:09:40.346784","MEAN_MOTION":14.6001008,"ECCENTRICITY":0.00072957,"INCLINATION":35.0049,"RA_OF_ASC_NODE":207.4346,"ARG_OF_PERICENTER":288.5585,"MEAN_ANOMALY":133.1911,"EPHEMERIS_TYPE":0,"CLASSIFICATION_TYPE":"U","NORAD_CAT_ID":6153,"ELEMENT_SET_NO":999,"REV_AT_EPOCH":84850,"BSTAR":7.3920388e-5,"MEAN_MOTION_DOT":3.39e-6,"MEAN_MOTION_DDOT":0},{"OBJECT_NAME":"ATLAS CENTAUR R/B","OBJECT_ID":"1972-065B","EPOCH":"2026-03-25T15:20:05.111520","MEAN_MOTION":14.77730131,"ECCENTRICITY":0.00331146,"INCLINATION":35.0007,"RA_OF_ASC_NODE":212.2804,"ARG_OF_PERICENTER":145.2583,"MEAN_ANOMALY":215.0288,"EPHEMERIS_TYPE":0,"CLASSIFICATION_TYPE":"U","NORAD_CAT_ID":6155,"ELEMENT_SET_NO":999,"REV_AT_EPOCH":84362,"BSTAR":0.00018162985,"MEAN_MOTION_DOT":1.312e-5,"MEAN_MOTION_DDOT":0},{"OBJECT_NAME":"SL-8 R/B","OBJECT_ID":"1975-112B","EPOCH":"2026-03-25T10:22:13.946304","MEAN_MOTION":14.38212739,"ECCENTRICITY":0.00145002,"INCLINATION":74.0633,"RA_OF_ASC_NODE":349.9558,"ARG_OF_PERICENTER":76.6419,"MEAN_ANOMALY":283.6351,"EPHEMERIS_TYPE":0,"CLASSIFICATION_TYPE":"U","NORAD_CAT_ID":8459,"ELEMENT_SET_NO":999,"REV_AT_EPOCH":63413,"BSTAR":8.8232067e-5,"MEAN_MOTION_DOT":2.42e-6,"MEAN_MOTION_DDOT":0},{"OBJECT_NAME":"SL-3 R/B","OBJECT_ID":"1977-057B","EPOCH":"2026-03-25T13:54:31.038624","MEAN_MOTION":15.45937111,"ECCENTRICITY":0.00065907,"INCLINATION":97.5798,"RA_OF_ASC_NODE":257.2069,"ARG_OF_PERICENTER":217.5204,"MEAN_ANOMALY":142.5586,"EPHEMERIS_TYPE":0,"CLASSIFICATION_TYPE":"U","NORAD_CAT_ID":10114,"ELEMENT_SET_NO":999,"REV_AT_EPOCH":67078,"BSTAR":0.00027739225,"MEAN_MOTION_DOT":0.00013423,"MEAN_MOTION_DDOT":0},{"OBJECT_NAME":"SEASAT 1","OBJECT_ID":"1978-064A","EPOCH":"2026-03-25T11:23:45.113280","MEAN_MOTION":14.46172802,"ECCENTRICITY":0.00025688,"INCLINATION":108.0081,"RA_OF_ASC_NODE":158.6212,"ARG_OF_PERICENTER":278.2912,"MEAN_ANOMALY":81.7942,"EPHEMERIS_TYPE":0,"CLASSIFICATION_TYPE":"U","NORAD_CAT_ID":10967,"ELEMENT_SET_NO":999,"REV_AT_EPOCH":50879,"BSTAR":0.00011092457,"MEAN_MOTION_DOT":2.59e-6,"MEAN_MOTION_DDOT":0},{"OBJECT_NAME":"SL-14 R/B","OBJECT_ID":"1979-011B","EPOCH":"2026-03-25T09:48:46.651392","MEAN_MOTION":14.919272,"ECCENTRICITY":0.00162721,"INCLINATION":82.5207,"RA_OF_ASC_NODE":81.6498,"ARG_OF_PERICENTER":10.9169,"MEAN_ANOMALY":349.24,"EPHEMERIS_TYPE":0,"CLASSIFICATION_TYPE":"U","NORAD_CAT_ID":11267,"ELEMENT_SET_NO":999,"REV_AT_EPOCH":53112,"BSTAR":6.023634e-5,"MEAN_MOTION_DOT":6.36e-6,"MEAN_MOTION_DDOT":0}]
